GLOBALSTAR M045         
1 25676U 99019A   25352.67296564 -.00000094  00000+0 -84283-6 0  9991
2 25676  51.9946 139.4404 0000974 119.2704 253.9155 12.27070659216043
GLOBALSTAR M019         
1 25677U 99019B   25352.96407190  .00000049  00000+0  14462-2 0  9999
2 25677  51.9884 281.9826 0001723 359.2540  77.6601 12.13877694207588
GLOBALSTAR M044         
1 25678U 99019C   25352.45346591 -.00000031  00000+0  73897-3 0  9991
2 25678  51.9967 257.8139 0006916  36.8314 134.5473 11.90261933193262
GLOBALSTAR M042         
1 25679U 99019D   25352.91098689 -.00000062  00000+0  28469-3 0  9994
2 25679  52.0009 249.4710 0002999 339.5966 101.2356 12.22094426207845
GLOBALSTAR M025         
1 25770U 99031A   25352.52778802 -.00000080  00000+0 -39510-3 0  9999
2 25770  51.9822  92.2303 0002954 100.7445 272.8002 11.22558928502416
GLOBALSTAR M049         
1 25771U 99031B   25352.69572644 -.00000132  00000+0 -23010-2 0  9999
2 25771  51.9850 135.8767 0002241 347.2422  12.8318 11.12123342137950
GLOBALSTAR M047         
1 25772U 99031C   25352.27043585 -.00000086  00000+0 -44658-3 0  9991
2 25772  51.9819 116.2223 0016169 215.2216 144.7522 11.31931785491959
GLOBALSTAR M052         
1 25773U 99031D   25352.90039263 -.00000016  00000+0  16618-2 0  9996
2 25773  51.9851 241.4929 0003355 101.1466 342.2800 11.15062438499115
